[{"OBJECT_NAME":"KINEIS-1E","OBJECT_ID":"2024-114E","EPOCH":"2026-03-09T22:57:11.384064","MEAN_MOTION":14.80427699,"ECCENTRICITY":0.0002464,"INCLINATION":97.9929,"RA_OF_ASC_NODE":93.4952,"ARG_OF_PERICENTER":86.0273,"MEAN_ANOMALY":274.122,"EPHEMERIS_TYPE":0,"CLASSIFICATION_TYPE":"U","NORAD_CAT_ID":60083,"ELEMENT_SET_NO":999,"REV_AT_EPOCH":9270,"BSTAR":0.00020731869,"MEAN_MOTION_DOT":1.531e-5,"MEAN_MOTION_DDOT":0},{"OBJECT_NAME":"KUIPER-00140","OBJECT_ID":"2025-228U","EPOCH":"2026-03-09T22:44:55.211136","MEAN_MOTION":14.79932108,"ECCENTRICITY":7.173e-5,"INCLINATION":51.9003,"RA_OF_ASC_NODE":344.5294,"ARG_OF_PERICENTER":130.1731,"MEAN_ANOMALY":229.9294,"EPHEMERIS_TYPE":0,"CLASSIFICATION_TYPE":"U","NORAD_CAT_ID":65965,"ELEMENT_SET_NO":999,"REV_AT_EPOCH":2347,"BSTAR":0.00031250599,"MEAN_MOTION_DOT":2.162e-5,"MEAN_MOTION_DDOT":0}]
